{
  "links" : {
    "next" : "https://api.nasa.gov/neo/rest/v1/feed?start_date=2006-08-16&end_date=2006-08-16&detailed=true&api_key=t0TVs3DtDT2H8Oy2Zy8m2eVrNsAVKAexjcZXUckd",
    "prev" : "https://api.nasa.gov/neo/rest/v1/feed?start_date=2006-08-14&end_date=2006-08-14&detailed=true&api_key=t0TVs3DtDT2H8Oy2Zy8m2eVrNsAVKAexjcZXUckd",
    "self" : "https://api.nasa.gov/neo/rest/v1/feed?start_date=2006-08-15&end_date=2006-08-15&detailed=true&api_key=t0TVs3DtDT2H8Oy2Zy8m2eVrNsAVKAexjcZXUckd"
  },
  "element_count" : 3,
  "near_earth_objects" : {
    "2006-08-15" : [ {
      "links" : {
        "self" : "https://api.nasa.gov/neo/rest/v1/neo/2143947?api_key=t0TVs3DtDT2H8Oy2Zy8m2eVrNsAVKAexjcZXUckd"
      },
      "neo_reference_id" : "2143947",
      "name" : "143947 (2003 YQ117)",
      "nasa_jpl_url" : "http://ssd.jpl.nasa.gov/sbdb.cgi?sstr=2143947",
      "absolute_magnitude_h" : 15.3,
      "estimated_diameter" : {
        "kilometers" : {
          "estimated_diameter_min" : 2.3150212221,
          "estimated_diameter_max" : 5.176544822
        },
        "meters" : {
          "estimated_diameter_min" : 2315.0212221033,
          "estimated_diameter_max" : 5176.5448219775
        },
        "miles" : {
          "estimated_diameter_min" : 1.4384870518,
          "estimated_diameter_max" : 3.2165548326
        },
        "feet" : {
          "estimated_diameter_min" : 7595.2142263253,
          "estimated_diameter_max" : 16983.4153137368
        }
      },
      "is_potentially_hazardous_asteroid" : false,
      "close_approach_data" : [ {
        "close_approach_date" : "2006-08-15",
        "epoch_date_close_approach" : 1155625200000,
        "relative_velocity" : {
          "kilometers_per_second" : "15.4537763602",
          "kilometers_per_hour" : "55633.5948967182",
          "miles_per_hour" : "34568.5523401303"
        },
        "miss_distance" : {
          "astronomical" : "0.3825486122",
          "lunar" : "148.8114013672",
          "kilometers" : "57228456",
          "miles" : "35560116"
        },
        "orbiting_body" : "Earth"
      } ],
      "orbital_data" : {
        "orbit_id" : "127",
        "orbit_determination_date" : "2017-04-12 06:15:09",
        "orbit_uncertainty" : "0",
        "minimum_orbit_intersection" : ".104192",
        "jupiter_tisserand_invariant" : "3.299",
        "epoch_osculation" : "2458000.5",
        "eccentricity" : ".6552595563390029",
        "semi_major_axis" : "2.180643268131004",
        "inclination" : "21.03075351809306",
        "ascending_node_longitude" : "217.5337158979694",
        "orbital_period" : "1176.184263269931",
        "perihelion_distance" : ".7517559277218488",
        "perihelion_argument" : "135.7028725580429",
        "aphelion_distance" : "3.609530608540158",
        "perihelion_time" : "2457508.793519666160",
        "mean_anomaly" : "150.4988108139295",
        "mean_motion" : ".3060744912528904",
        "equinox" : "J2000"
      }
    }, {
      "links" : {
        "self" : "https://api.nasa.gov/neo/rest/v1/neo/3778653?api_key=t0TVs3DtDT2H8Oy2Zy8m2eVrNsAVKAexjcZXUckd"
      },
      "neo_reference_id" : "3778653",
      "name" : "(2017 OJ19)",
      "nasa_jpl_url" : "http://ssd.jpl.nasa.gov/sbdb.cgi?sstr=3778653",
      "absolute_magnitude_h" : 23.389,
      "estimated_diameter" : {
        "kilometers" : {
          "estimated_diameter_min" : 0.0558155202,
          "estimated_diameter_max" : 0.1248072973
        },
        "meters" : {
          "estimated_diameter_min" : 55.815520186,
          "estimated_diameter_max" : 124.8072973354
        },
        "miles" : {
          "estimated_diameter_min" : 0.0346821456,
          "estimated_diameter_max" : 0.0775516352
        },
        "feet" : {
          "estimated_diameter_min" : 183.1217912471,
          "estimated_diameter_max" : 409.4727733899
        }
      },
      "is_potentially_hazardous_asteroid" : false,
      "close_approach_data" : [ {
        "close_approach_date" : "2006-08-15",
        "epoch_date_close_approach" : 1155625200000,
        "relative_velocity" : {
          "kilometers_per_second" : "4.3794302053",
          "kilometers_per_hour" : "15765.9487389144",
          "miles_per_hour" : "9796.3474261327"
        },
        "miss_distance" : {
          "astronomical" : "0.2037293802",
          "lunar" : "79.2507247925",
          "kilometers" : "30477482",
          "miles" : "18937828"
        },
        "orbiting_body" : "Earth"
      } ],
      "orbital_data" : {
        "orbit_id" : "11",
        "orbit_determination_date" : "2017-09-26 06:50:33",
        "orbit_uncertainty" : "6",
        "minimum_orbit_intersection" : ".192216",
        "jupiter_tisserand_invariant" : "3.361",
        "epoch_osculation" : "2458000.5",
        "eccentricity" : ".4944430279769331",
        "semi_major_axis" : "2.38093760147023",
        "inclination" : "1.379485008366173",
        "ascending_node_longitude" : "4.462054841002636",
        "orbital_period" : "1341.900910329362",
        "perihelion_distance" : "1.203699604375153",
        "perihelion_argument" : "321.3927746986879",
        "aphelion_distance" : "3.558175598565308",
        "perihelion_time" : "2457983.674893759437",
        "mean_anomaly" : "4.513774601372034",
        "mean_motion" : ".2682761426189361",
        "equinox" : "J2000"
      }
    }, {
      "links" : {
        "self" : "https://api.nasa.gov/neo/rest/v1/neo/3757412?api_key=t0TVs3DtDT2H8Oy2Zy8m2eVrNsAVKAexjcZXUckd"
      },
      "neo_reference_id" : "3757412",
      "name" : "(2016 PC40)",
      "nasa_jpl_url" : "http://ssd.jpl.nasa.gov/sbdb.cgi?sstr=3757412",
      "absolute_magnitude_h" : 23.8,
      "estimated_diameter" : {
        "kilometers" : {
          "estimated_diameter_min" : 0.046190746,
          "estimated_diameter_max" : 0.1032856481
        },
        "meters" : {
          "estimated_diameter_min" : 46.1907460282,
          "estimated_diameter_max" : 103.2856480504
        },
        "miles" : {
          "estimated_diameter_min" : 0.0287015901,
          "estimated_diameter_max" : 0.0641787064
        },
        "feet" : {
          "estimated_diameter_min" : 151.544447199,
          "estimated_diameter_max" : 338.8636855496
        }
      },
      "is_potentially_hazardous_asteroid" : false,
      "close_approach_data" : [ {
        "close_approach_date" : "2006-08-15",
        "epoch_date_close_approach" : 1155625200000,
        "relative_velocity" : {
          "kilometers_per_second" : "6.1876162806",
          "kilometers_per_hour" : "22275.4186099943",
          "miles_per_hour" : "13841.0788579712"
        },
        "miss_distance" : {
          "astronomical" : "0.395035013",
          "lunar" : "153.6686096191",
          "kilometers" : "59096396",
          "miles" : "36720796"
        },
        "orbiting_body" : "Earth"
      } ],
      "orbital_data" : {
        "orbit_id" : "6",
        "orbit_determination_date" : "2017-04-06 08:24:31",
        "orbit_uncertainty" : "6",
        "minimum_orbit_intersection" : ".187247",
        "jupiter_tisserand_invariant" : "3.486",
        "epoch_osculation" : "2458000.5",
        "eccentricity" : ".4650728062339702",
        "semi_major_axis" : "2.237009021859536",
        "inclination" : "2.036496624495893",
        "ascending_node_longitude" : "43.4837715770743",
        "orbital_period" : "1222.081107546071",
        "perihelion_distance" : "1.196636958492613",
        "perihelion_argument" : "275.4667130927153",
        "aphelion_distance" : "3.277381085226459",
        "perihelion_time" : "2457610.735237679103",
        "mean_anomaly" : "114.8166955279057",
        "mean_motion" : ".2945794659430397",
        "equinox" : "J2000"
      }
    } ]
  }
}